$$SOE
2460147.500000000, A.D. 2023-Jul-22 00:00:00.0000, 2.767619149015785E+08, -2.980710229929731E+08, -7.275466643970077E+07,
2460154.500000000, A.D. 2023-Jul-29 00:00:00.0000, 2.847724521044731E+08, -2.901766838756082E+08, -7.374650581081027E+07,
2460161.500000000, A.D. 2023-Aug-05 00:00:00.0000, 2.925870150296537E+08, -2.820826479391912E+08, -7.468759494721095E+07,
2460168.500000000, A.D. 2023-Aug-12 00:00:00.0000, 3.002002591434522E+08, -2.737945177644580E+08, -7.557729475199486E+07,
2460175.500000000, A.D. 2023-Aug-19 00:00:00.0000, 3.076070166760840E+08, -2.653180609341878E+08, -7.641501083545817E+07,
2460182.500000000, A.D. 2023-Aug-26 00:00:00.0000, 3.148023026556829E+08, -2.566592027584706E+08, -7.720019417483047E+07,
2460189.500000000, A.D. 2023-Sep-02 00:00:00.0000, 3.217813205640120E+08, -2.478240187942539E+08, -7.793234169051008E+07,
2460196.500000000, A.D. 2023-Sep-09 00:00:00.0000, 3.285394676387402E+08, -2.388187272212241E+08, -7.861099674478693E+07,
2460203.500000000, A.D. 2023-Sep-16 00:00:00.0000, 3.350723399803376E+08, -2.296496811555034E+08, -7.923574958342780E+07,
2460210.500000000, A.D. 2023-Sep-23 00:00:00.0000, 3.413757378709245E+08, -2.203233606393872E+08, -7.980623773550871E+07,
2460217.500000000, A.D. 2023-Sep-30 00:00:00.0000, 3.474456709582828E+08, -2.108463631434301E+08, -8.032214624407831E+07,
2460224.500000000, A.D. 2023-Oct-07 00:00:00.0000, 3.532783609438748E+08, -2.012253931523303E+08, -8.078320755705923E+07,
2460231.500000000, A.D. 2023-Oct-14 00:00:00.0000, 3.588702428055362E+08, -1.914672541742118E+08, -8.118920144448256E+07,
2460238.500000000, A.D. 2023-Oct-21 00:00:00.0000, 3.642179677760651E+08, -1.815788415940822E+08, -8.153995510692030E+07,
2460245.500000000, A.D. 2023-Oct-28 00:00:00.0000, 3.693184066502041E+08, -1.715671341353791E+08, -8.183534316030988E+07,
2460252.500000000, A.D. 2023-Nov-04 00:00:00.0000, 3.741686521691400E+08, -1.614391847250276E+08, -8.207528744661638E+07,
2460259.500000000, A.D. 2023-Nov-11 00:00:00.0000, 3.787660206606050E+08, -1.512021113867823E+08, -8.225975673705907E+07,
2460266.500000000, A.D. 2023-Nov-18 00:00:00.0000, 3.831080531562027E+08, -1.408630882516029E+08, -8.238876635501207E+07,
2460273.500000000, A.D. 2023-Nov-25 00:00:00.0000, 3.871925160626832E+08, -1.304293366865426E+08, -8.246237772550452E+07,
2460280.500000000, A.D. 2023-Dec-02 00:00:00.0000, 3.910174014208999E+08, -1.199081165770620E+08, -8.248069785729228E+07,
2460287.500000000, A.D. 2023-Dec-09 00:00:00.0000, 3.945809268369138E+08, -1.093067178450526E+08, -8.244387877218324E+07,
2460294.500000000, A.D. 2023-Dec-16 00:00:00.0000, 3.978815353796875E+08, -9.863245221224248E+07, -8.235211690964410E+07,
2460301.500000000, A.D. 2023-Dec-23 00:00:00.0000, 4.009178958020772E+08, -8.789264454134102E+07, -8.220565248522983E+07,
2460308.500000000, A.D. 2023-Dec-30 00:00:00.0000, 4.036889017575727E+08, -7.709462272457498E+07, -8.200476859799534E+07,
2460315.500000000, A.D. 2024-Jan-06 00:00:00.0000, 4.061936682550986E+08, -6.624570850122784E+07, -8.174979012190975E+07,
2460322.500000000, A.D. 2024-Jan-13 00:00:00.0000, 4.084315285362714E+08, -5.535321103082074E+07, -8.144108282373115E+07,
2460329.500000000, A.D. 2024-Jan-20 00:00:00.0000, 4.104020326104777E+08, -4.442442015338690E+07, -8.107905257089224E+07,
2460336.500000000, A.D. 2024-Jan-27 00:00:00.0000, 4.121049454339617E+08, -3.346659869948171E+07, -8.066414439407457E+07,
2460343.500000000, A.D. 2024-Feb-03 00:00:00.0000, 4.135402443207173E+08, -2.248697481294047E+07, -8.019684144702925E+07,
2460350.500000000, A.D. 2024-Feb-10 00:00:00.0000, 4.147081158789791E+08, -1.149273459074444E+07, -7.967766391714297E+07,
2460357.500000000, A.D. 2024-Feb-17 00:00:00.0000, 4.156089526287901E+08, -4.910150438964181E+05, -7.910716790301454E+07,
2460364.500000000, A.D. 2024-Feb-24 00:00:00.0000, 4.162433493538541E+08, 1.051110262507703E+07, -7.848594426529600E+07,
2460371.500000000, A.D. 2024-Mar-02 00:00:00.0000, 4.166120992348401E+08, 2.150659938634796E+07, -7.781461746031857E+07,
2460378.500000000, A.D. 2024-Mar-09 00:00:00.0000, 4.167161899210172E+08, 3.248852431765506E+07, -7.709384437851687E+07,
2460385.500000000, A.D. 2024-Mar-16 00:00:00.0000, 4.165567999525729E+08, 4.345000029972005E+07, -7.632431321156289E+07,
2460392.500000000, A.D. 2024-Mar-23 00:00:00.0000, 4.161352954458269E+08, 5.438423057655705E+07, -7.550674225130945E+07,
2460399.500000000, A.D. 2024-Mar-30 00:00:00.0000, 4.154532248191419E+08, 6.528450615219889E+07, -7.464187842106146E+07,
2460406.500000000, A.D. 2024-Apr-06 00:00:00.0000, 4.145123118372859E+08, 7.614421065289882E+07, -7.373049584259780E+07,
2460413.500000000, A.D. 2024-Apr-13 00:00:00.0000, 4.133144505427231E+08, 8.695682348699933E+07, -7.277339469984950E+07,
2460420.500000000, A.D. 2024-Apr-20 00:00:00.0000, 4.118617011368349E+08, 9.771592397754656E+07, -7.177140009585813E+07,
2460427.500000000, A.D. 2024-Apr-27 00:00:00.0000, 4.101562853098357E+08, 1.084151959059113E+08, -7.072536081244288E+07,
2460434.500000000, A.D. 2024-May-04 00:00:00.0000, 4.082005811220223E+08, 1.190484317634488E+08, -6.963614804047270E+07,
2460441.500000000, A.D. 2024-May-11 00:00:00.0000, 4.059971176880711E+08, 1.296095366117938E+08, -6.850465411295095E+07,
2460448.500000000, A.D. 2024-May-18 00:00:00.0000, 4.035485697598315E+08, 1.400925315783270E+08, -6.733179124884155E+07,
2460455.500000000, A.D. 2024-May-25 00:00:00.0000, 4.008577522472185E+08, 1.504915569863442E+08, -6.611849031313892E+07,
2460462.500000000, A.D. 2024-Jun-01 00:00:00.0000, 3.979276147534000E+08, 1.608008750694159E+08, -6.486569960635832E+07,
2460469.500000000, A.D. 2024-Jun-08 00:00:00.0000, 3.947612363872008E+08, 1.710148722529184E+08, -6.357438371080397E+07,
2460476.500000000, A.D. 2024-Jun-15 00:00:00.0000, 3.913618212666326E+08, 1.811280615522280E+08, -6.224552238787916E+07,
2460483.500000000, A.D. 2024-Jun-22 00:00:00.0000, 3.877326937185860E+08, 1.911350862677198E+08, -6.088010933922742E+07,
2460490.500000000, A.D. 2024-Jun-29 00:00:00.0000, 3.838772910638534E+08, 2.010307231646037E+08, -5.947915078705323E+07,
2460497.500000000, A.D. 2024-Jul-06 00:00:00.0000, 3.797991566461293E+08, 2.108098826745960E+08, -5.804366432011996E+07,
2460504.500000000, A.D. 2024-Jul-13 00:00:00.0000, 3.755019350638535E+08, 2.204676089493001E+08, -5.657467795450041E+07,
2460511.500000000, A.D. 2024-Jul-20 00:00:00.0000, 3.709893676264012E+08, 2.299990809216296E+08, -5.507322913366400E+07,
2460518.500000000, A.D. 2024-Jul-27 00:00:00.0000, 3.662652873866050E+08, 2.393996134247481E+08, -5.354036368704306E+07,
2460525.500000000, A.D. 2024-Aug-03 00:00:00.0000, 3.613336140304919E+08, 2.486646580025766E+08, -5.197713480375475E+07,
2460532.500000000, A.D. 2024-Aug-10 00:00:00.0000, 3.561983487972674E+08, 2.577898034164614E+08, -5.038460203798525E+07,
2460539.500000000, A.D. 2024-Aug-17 00:00:00.0000, 3.508635694834030E+08, 2.667707758789648E+08, -4.876383034944508E+07,
2460546.500000000, A.D. 2024-Aug-24 00:00:00.0000, 3.453334255645353E+08, 2.756034390019808E+08, -4.711588918403018E+07,
2460553.500000000, A.D. 2024-Aug-31 00:00:00.0000, 3.396121335562387E+08, 2.842837934074187E+08, -4.544185161102579E+07,
2460560.500000000, A.D. 2024-Sep-07 00:00:00.0000, 3.337039729845424E+08, 2.928079761365153E+08, -4.374279354076184E+07,
2460567.500000000, A.D. 2024-Sep-14 00:00:00.0000, 3.276132830560555E+08, 3.011722608619438E+08, -4.201979294968161E+07,
2460574.500000000, A.D. 2024-Sep-21 00:00:00.0000, 3.213444580003896E+08, 3.093730593227957E+08, -4.027392889288609E+07,
2460581.500000000, A.D. 2024-Sep-28 00:00:00.0000, 3.149019405992242E+08, 3.174069207658736E+08, -3.850628052319102E+07,
2460588.500000000, A.D. 2024-Oct-05 00:00:00.0000, 3.082902175772012E+08, 3.252705294057226E+08, -3.671792645380811E+07,
2460595.500000000, A.D. 2024-Oct-12 00:00:00.0000, 3.015138164968823E+08, 3.329607028905408E+08, -3.490994418802468E+07,
2460602.500000000, A.D. 2024-Oct-19 00:00:00.0000, 2.945773024074501E+08, 3.404743915106888E+08, -3.308340947692551E+07,
2460609.500000000, A.D. 2024-Oct-26 00:00:00.0000, 2.874852742157874E+08, 3.478086773566934E+08, -3.123939566722754E+07,
2460616.500000000, A.D. 2024-Nov-02 00:00:00.0000, 2.802423610382940E+08, 3.549607732862615E+08, -2.937897307445377E+07,
2460623.500000000, A.D. 2024-Nov-09 00:00:00.0000, 2.728532186305127E+08, 3.619280217283745E+08, -2.750320838798408E+07,
2460630.500000000, A.D. 2024-Nov-16 00:00:00.0000, 2.653225259202080E+08, 3.687078933317448E+08, -2.561316410960649E+07,
2460637.500000000, A.D. 2024-Nov-23 00:00:00.0000, 2.576549816898511E+08, 3.752979854147239E+08, -2.370989803317359E+07,
2460644.500000000, A.D. 2024-Nov-30 00:00:00.0000, 2.498553016154275E+08, 3.816960201814474E+08, -2.179446278721595E+07,
2460651.500000000, A.D. 2024-Dec-07 00:00:00.0000, 2.419282160800332E+08, 3.878998431328213E+08, -1.986790544399288E+07,
2460658.500000000, A.D. 2024-Dec-14 00:00:00.0000, 2.338784680732030E+08, 3.939074229031172E+08, -1.793126703122006E+07,
2460665.500000000, A.D. 2024-Dec-21 00:00:00.0000, 2.257108088549833E+08, 3.997168512864229E+08, -1.598558183420451E+07,
2460672.500000000, A.D. 2024-Dec-28 00:00:00.0000, 2.174299933549151E+08, 4.053263404936831E+08, -1.403187691074634E+07,
2460679.500000000, A.D. 2025-Jan-04 00:00:00.0000, 2.090407779044561E+08, 4.107342200240407E+08, -1.207117186218539E+07,
2460686.500000000, A.D. 2025-Jan-11 00:00:00.0000, 2.005479184810032E+08, 4.159389348129992E+08, -1.010447855687180E+07,
2460693.500000000, A.D. 2025-Jan-18 00:00:00.0000, 1.919561685431753E+08, 4.209390437407985E+08, -8.132800795710444E+06,
2460700.500000000, A.D. 2025-Jan-25 00:00:00.0000, 1.832702766966706E+08, 4.257332180300288E+08, -6.157133979627103E+06,
2460707.500000000, A.D. 2025-Feb-01 00:00:00.0000, 1.744949843761558E+08, 4.303202395073253E+08, -4.178464797636300E+06,
2460714.500000000, A.D. 2025-Feb-08 00:00:00.0000, 1.656350235984288E+08, 4.346989987547383E+08, -2.197770938189596E+06,
$$EOE